{
    "satellites": [
        {
            "name": "starlink341",
            "title": "Starlink-341 (G6-96)",
            "tle": [
                "1 67362C 26003AE  26018.09631944 -.01709300  00000+0 -51818-2 0   186",
                "2 67362  42.9983 160.2009 0001402 264.6308  26.5237 15.92798795    13"
            ],
            "stdMag": 5,
            "noradId": "67362",
            "tleUrl": "http://celestrak.org/NORAD/elements/supplemental/sup-gp.php?FILE=starlink&FORMAT=tle",
            "launchDate": "2026-01-09T21:41:00.000Z",
            "active": true,
            "batch": [
                {
                    "noradId": "67362",
                    "tle": [
                        "1 67362C 26003AE  26018.09631944 -.01709300  00000+0 -51818-2 0   186",
                        "2 67362  42.9983 160.2009 0001402 264.6308  26.5237 15.92798795    13"
                    ]
                },
                {
                    "noradId": "67360",
                    "tle": [
                        "1 67360C 26003AC  26018.09076389 -.01679800  00000+0 -51087-2 0   189",
                        "2 67360  42.9985 160.2466 0001252 266.5571 348.5568 15.92706009    17"
                    ]
                },
                {
                    "noradId": "67361",
                    "tle": [
                        "1 67361C 26003AD  26018.11368056 -.01695400  00000+0 -51657-2 0   185",
                        "2 67361  42.9983 160.0990 0001395 276.1266 112.4063 15.92685944    14"
                    ]
                },
                {
                    "noradId": "67358",
                    "tle": [
                        "1 67358C 26003AA  26018.09770833 -.01651500  00000+0 -50502-2 0   189",
                        "2 67358  42.9985 160.2143 0001265 265.1342  25.5149 15.92570743    12"
                    ]
                },
                {
                    "noradId": "67359",
                    "tle": [
                        "1 67359C 26003AB  26018.09076389 -.01661100  00000+0 -50624-2 0   187",
                        "2 67359  42.9985 160.2527 0001266 266.3091 346.4104 15.92646085    13"
                    ]
                },
                {
                    "noradId": "67357",
                    "tle": [
                        "1 67357C 26003Z   26018.09284722 -.01639300  00000+0 -50197-2 0   189",
                        "2 67357  42.9985 160.2509 0001126 269.9746 350.3328 15.92532786    16"
                    ]
                },
                {
                    "noradId": "67356",
                    "tle": [
                        "1 67356C 26003Y   26018.09909722 -.01626000  00000+0 -50050-2 0   183",
                        "2 67356  42.9986 160.2226 0001410 267.3357  24.7913 15.92416445    13"
                    ]
                },
                {
                    "noradId": "67354",
                    "tle": [
                        "1 67354C 26003W   26018.09840278 -.01629900  00000+0 -50058-2 0   181",
                        "2 67354  42.9985 160.2221 0001323 262.7419  27.2263 15.92464307    12"
                    ]
                },
                {
                    "noradId": "67355",
                    "tle": [
                        "1 67355C 26003X   26018.09215278 -.01618700  00000+0 -49875-2 0   189",
                        "2 67355  42.9985 160.2708 0001339 265.7482 344.6049 15.92390078    14"
                    ]
                },
                {
                    "noradId": "67353",
                    "tle": [
                        "1 67353C 26003V   26018.09076389 -.01606900  00000+0 -49605-2 0   185",
                        "2 67353  42.9983 160.2858 0001052 261.1469 338.7866 15.92341585    13"
                    ]
                },
                {
                    "noradId": "67352",
                    "tle": [
                        "1 67352C 26003U   26018.09909722 -.01601200  00000+0 -49598-2 0   189",
                        "2 67352  42.9985 160.2392 0001318 264.7931  20.7291 15.92268722    16"
                    ]
                },
                {
                    "noradId": "67351",
                    "tle": [
                        "1 67351C 26003T   26018.09909722 -.01596200  00000+0 -49547-2 0   185",
                        "2 67351  42.9984 160.2439 0001224 264.6259  19.0331 15.92222816    14"
                    ]
                },
                {
                    "noradId": "67350",
                    "tle": [
                        "1 67350C 26003S   26018.09562500 -.01593400  00000+0 -49538-2 0   182",
                        "2 67350  42.9984 160.2699 0001165 269.8480 352.1020 15.92189714    13"
                    ]
                },
                {
                    "noradId": "67349",
                    "tle": [
                        "1 67349C 26003R   26018.09562500 -.01583300  00000+0 -49325-2 0   182",
                        "2 67349  42.9985 160.2762 0001129 265.6403 353.9166 15.92140191    18"
                    ]
                },
                {
                    "noradId": "67348",
                    "tle": [
                        "1 67348C 26003Q   26018.09562500 -.01566800  00000+0 -49005-2 0   182",
                        "2 67348  42.9985 160.2877 0001293 267.4215 347.7152 15.92044865    14"
                    ]
                },
                {
                    "noradId": "67347",
                    "tle": [
                        "1 67347C 26003P   26018.09493056 -.01573300  00000+0 -49103-2 0   182",
                        "2 67347  42.9985 160.2867 0001253 268.2792 344.7887 15.92093701    12"
                    ]
                },
                {
                    "noradId": "67346",
                    "tle": [
                        "1 67346C 26003N   26018.09631944 -.01556400  00000+0 -48780-2 0   183",
                        "2 67346  42.9984 160.2889 0001249 265.4212 351.2856 15.91994346    18"
                    ]
                },
                {
                    "noradId": "67345",
                    "tle": [
                        "1 67345C 26003M   26018.11506944 -.01553000  00000+0 -48918-2 0   182",
                        "2 67345  42.9983 160.1774 0001257 275.3338  87.0595 15.91892591    19"
                    ]
                },
                {
                    "noradId": "67344",
                    "tle": [
                        "1 67344C 26003L   26018.09493056 -.01543000  00000+0 -48540-2 0   187",
                        "2 67344  42.9981 160.3084 0001398 262.4628 342.0568 15.91907527    17"
                    ]
                },
                {
                    "noradId": "67343",
                    "tle": [
                        "1 67343C 26003K   26018.09423611 -.01530900  00000+0 -48249-2 0   187",
                        "2 67343  42.9983 160.3192 0001154 265.6014 332.5003 15.91859604    12"
                    ]
                },
                {
                    "noradId": "67342",
                    "tle": [
                        "1 67342C 26003J   26018.09770833 -.01528400  00000+0 -48292-2 0   187",
                        "2 67342  42.9983 160.3020 0001363 269.7581 346.4810 15.91806744    14"
                    ]
                },
                {
                    "noradId": "67341",
                    "tle": [
                        "1 67341C 26003H   26018.09701389 -.01520100  00000+0 -48119-2 0   183",
                        "2 67341  42.9984 160.3115 0001319 267.4844 342.6123 15.91763251    17"
                    ]
                },
                {
                    "noradId": "67340",
                    "tle": [
                        "1 67340C 26003G   26018.09631944 -.01507200  00000+0 -47797-2 0   188",
                        "2 67340  42.9982 160.3222 0001220 266.0721 337.6681 15.91714026    12"
                    ]
                },
                {
                    "noradId": "67339",
                    "tle": [
                        "1 67339C 26003F   26018.09493056 -.01500000  00000+0 -47646-2 0   180",
                        "2 67339  42.9983 160.3366 0001331 267.2751 326.0277 15.91675621    19"
                    ]
                },
                {
                    "noradId": "67338",
                    "tle": [
                        "1 67338C 26003E   26018.09631944 -.01492000  00000+0 -47494-2 0   180",
                        "2 67338  42.9984 160.3336 0001251 264.6435 334.5900 15.91624722    10"
                    ]
                },
                {
                    "noradId": "67337",
                    "tle": [
                        "1 67337C 26003D   26018.09840278 -.01487800  00000+0 -47468-2 0   184",
                        "2 67337  42.9984 160.3254 0001367 267.9047 341.3158 15.91576636    12"
                    ]
                },
                {
                    "noradId": "67336",
                    "tle": [
                        "1 67336C 26003C   26018.09701389 -.01479700  00000+0 -47288-2 0   182",
                        "2 67336  42.9984 160.3397 0001265 265.0444 334.0772 15.91535718    13"
                    ]
                },
                {
                    "noradId": "67335",
                    "tle": [
                        "1 67335C 26003B   26018.09770833 -.01470500  00000+0 -47088-2 0   188",
                        "2 67335  42.9983 160.3407 0001278 264.5591 336.4197 15.91486681    15"
                    ]
                },
                {
                    "noradId": "67334",
                    "tle": [
                        "1 67334C 26003A   26018.11368056 -.01470000  00000+0 -47278-2 0   186",
                        "2 67334  42.9983 160.2452 0001386 273.3293  57.6882 15.91399778    13"
                    ]
                }
            ]
        }
    ],
    "config": {}
}